STARLINK-34143          
1 63896U 25095G   25152.50002315 -.01476061  00000+0 -20441-1 0  9992
2 63896  42.9995 326.0547 0001422 255.1299  64.7576 15.59273320  4759
STARLINK-33957          
1 63897U 25095H   25152.50002315 -.01478294  00000+0 -20473-1 0  9998
2 63897  42.9995 326.0497 0001571 261.8815  59.9221 15.59275208  4757
STARLINK-34120          
1 63898U 25095J   25152.16668981 -.01522151  00000+0 -20276-1 0  9991
2 63898  42.9998 328.0205 0001347 257.4784 352.2020 15.60375973  4700
STARLINK-34134          
1 63899U 25095K   25152.50002315 -.01476049  00000+0 -20441-1 0  9991
2 63899  42.9995 326.0406 0001414 253.3981  72.2403 15.59273170  4751
STARLINK-34118          
1 63900U 25095L   25152.50002315 -.01477695  00000+0 -20465-1 0  9998
2 63900  42.9995 326.0356 0001486 255.6865  71.8690 15.59274385  4755
STARLINK-34125          
1 63901U 25095M   25152.50002315 -.01472192  00000+0 -20382-1 0  9994
2 63901  42.9994 326.0306 0001481 255.7561  73.7157 15.59271630  4758
STARLINK-33955          
1 63902U 25095N   25152.50002315 -.01471362  00000+0 -20370-1 0  9990
2 63902  42.9995 326.0258 0001476 255.1739  76.2162 15.59270601  4752
STARLINK-34097          
1 63903U 25095P   25152.50002315 -.01473445  00000+0 -20401-1 0  9990
2 63903  42.9995 326.0207 0001454 256.4419  76.8642 15.59272378  4754
STARLINK-34092          
1 63904U 25095Q   25152.50002315 -.01472455  00000+0 -20387-1 0  9994
2 63904  42.9996 326.0165 0001363 259.2410  75.9826 15.59271541  4755
STARLINK-34114          
1 63905U 25095R   25152.50002315 -.01475172  00000+0 -20428-1 0  9990
2 63905  42.9995 326.0113 0001369 255.4773  81.6633 15.59272846  4753
STARLINK-33770          
1 63906U 25095S   25152.50002315 -.01473127  00000+0 -20397-1 0  9994
2 63906  42.9995 326.0065 0001442 255.6931  83.3656 15.59271315  4754
STARLINK-34106          
1 63907U 25095T   25152.50002315 -.01449834  00000+0 -20050-1 0  9999
2 63907  42.9996 326.0021 0001475 252.4657  88.5165 15.59254326  4759
STARLINK-34083          
1 63908U 25095U   25152.50002315 -.01468634  00000+0 -20330-1 0  9990
2 63908  42.9996 325.9970 0001371 255.0918  87.8006 15.59268764  4752
STARLINK-34066          
1 63909U 25095V   25152.50002315 -.01476717  00000+0 -20452-1 0  9997
2 63909  42.9997 325.9927 0001416 254.5776  90.2336 15.59272325  4754
STARLINK-34071          
1 63910U 25095W   25152.50002315 -.01470416  00000+0 -20356-1 0  9992
2 63910  42.9997 325.9877 0001359 258.7750  87.9500 15.59270875  4758
STARLINK-34038          
1 63911U 25095X   25152.16668981 -.01520997  00000+0 -20260-1 0  9996
2 63911  43.0000 327.9588 0001387 257.3337  17.2707 15.60373995  4703
STARLINK-34031          
1 63912U 25095Y   25152.16668981 -.01517207  00000+0 -20205-1 0  9996
2 63912  42.9999 327.9540 0001380 257.1746  19.3471 15.60371966  4709
STARLINK-34070          
1 63913U 25095Z   25152.50002315 -.01479898  00000+0 -20498-1 0  9995
2 63913  42.9995 325.9727 0001469 266.7791  85.6978 15.59275988  4753
STARLINK-34068          
1 63914U 25095AA  25152.16668981 -.01522211  00000+0 -20276-1 0  9997
2 63914  42.9999 327.9437 0001512 258.5807  21.7739 15.60375507  4705
STARLINK-34076          
1 63915U 25095AB  25152.50002315 -.01469687  00000+0 -20345-1 0  9993
2 63915  42.9996 325.9633 0001394 258.2053  98.1052 15.59270193  4751
STARLINK-33910          
1 63916U 25095AC  25152.50002315 -.01468873  00000+0 -20332-1 0  9996
2 63916  42.9995 325.9582 0001470 256.8197 101.4074 15.59270012  4754
STARLINK-34075          
1 63917U 25095AD  25152.50002315 -.01463755  00000+0 -20256-1 0  9996
2 63917  42.9995 325.9534 0001246 259.8263 100.3157 15.59268039  4756
YAOGAN-40 02A           
1 63918U 25096A   25152.55782259  .00000321  00000+0  16411-3 0  9998
2 63918  85.9946 358.6197 0001882  96.1058 264.0339 14.12341341  2842
YAOGAN-40 02B           
1 63919U 25096B   25152.55798512  .00000444  00000+0  23082-3 0  9996
2 63919  85.9940 358.6187 0001609  86.0979 274.0388 14.12339809  2844
YAOGAN-40 02C           
1 63920U 25096C   25150.70756875  .00000277  00000+0  96975-4 0  9995
2 63920  85.9931 359.2870 0014003 224.0651 135.9591 14.31341930 21341
CZ-6A R/B               
1 63921U 25096D   25151.88293259  .00000323  00000+0  12630-3 0  9995
2 63921  85.9925 358.8029 0013004 184.8590 175.2477 14.26293141  2760
CZ-6A R/B               
1 63922U 25096E   25151.91148997  .00000425  00000+0  74215-4 0  9999
2 63922  86.0176 358.2977 0069665   1.3622 358.7766 14.63716346  2925
CZ-6A DEB               
1 63923U 25096F   25151.94315852  .00000199  00000+0  73952-4 0  9994
2 63923  85.9931 358.7661 0011350 197.8020 162.2775 14.26981285  2775
TJS-19                  
1 63924U 25097A   25151.75590275 -.00000283  00000+0  00000+0 0  9993
2 63924   3.9749 312.8622 0001577 127.5696 222.4854  1.00272364   314
CZ-3C R/B               
1 63925U 25097B   25151.73415655  .00241602  10681-5  32506-3 0  9993
2 63925  28.6087 132.9529 7254091 190.8993 134.3965  2.38529844   440
STARLINK-34012          
1 63926U 25098A   25152.50002315 -.01686893  00000+0 -31714-1 0  9990
2 63926  69.9997 270.6906 0003439 270.1925  26.1162 15.51539424  4250
STARLINK-33956          
1 63927U 25098B   25151.91668981 -.00053363  00000+0 -87009-3 0  9991
2 63927  69.9995 272.2853 0003027 272.4211   7.3751 15.52532768  4175
STARLINK-33997          
1 63928U 25098C   25152.16668981  .00062569  00000+0  10132-2 0  9998
2 63928  69.9996 271.5970 0003537 265.9849 332.9703 15.52478938  4047
STARLINK-33989          
1 63929U 25098D   25152.50002315 -.00062675  00000+0 -10231-2 0  9990
2 63929  69.9997 270.6815 0003481 270.1974  33.5048 15.52544425  4201
STARLINK-33980          
1 63930U 25098E   25152.50002315 -.01662851  00000+0 -37760-1 0  9990
2 63930  69.9999 270.7021 0003731 269.6315  15.9473 15.46135444  4256
STARLINK-33994          
1 63931U 25098F   25152.16668981  .00098267  00000+0  15846-2 0  9993
2 63931  69.9997 271.5888 0003123 265.7143 340.1717 15.52444663  3948
STARLINK-33971          
1 63932U 25098G   25152.50002315 -.01685752  00000+0 -36146-1 0  9994
2 63932  69.9998 270.6857 0003421 268.6191  30.7877 15.47832738  4096
STARLINK-33877          
1 63933U 25098H   25152.50002315 -.00068069  00000+0 -11117-2 0  9992
2 63933  69.9997 270.6701 0003443 269.1807  43.7346 15.52555406  3991
STARLINK-33895          
1 63934U 25098J   25152.16668981  .00076728  00000+0  12402-2 0  9999
2 63934  69.9997 271.5808 0003384 265.1567 347.6432 15.52467044  4042
STARLINK-34005          
1 63935U 25098K   25152.50002315 -.00050232  00000+0 -81787-3 0  9998
2 63935  69.9997 270.6648 0003627 270.0270  47.5213 15.52553470  4256
STARLINK-34027          
1 63936U 25098L   25152.16668981  .00059421  00000+0  96288-3 0  9997
2 63936  69.9996 271.5754 0003478 266.6765 350.7332 15.52474832  3948
STARLINK-34035          
1 63937U 25098M   25151.91668981 -.00034897  00000+0 -56684-3 0  9998
2 63937  69.9994 272.2573 0003456 272.1762  30.6978 15.52525517  4161
STARLINK-33988          
1 63938U 25098N   25152.50002315 -.00131703  00000+0 -21698-2 0  9998
2 63938  69.9996 270.6571 0003484 271.2077  53.2571 15.52566954  4254
STARLINK-34020          
1 63939U 25098P   25151.91668981 -.00060813  00000+0 -99275-3 0  9990
2 63939  69.9994 272.2515 0003413 272.8351  34.6547 15.52534331  4219
STARLINK-34021          
1 63940U 25098Q   25152.50002315 -.00082032  00000+0 -13426-2 0  9991
2 63940  69.9996 270.6509 0003586 267.7985  61.2938 15.52555702  4209
STARLINK-34004          
1 63941U 25098R   25151.91668981 -.00087654  00000+0 -14362-2 0  9998
2 63941  69.9995 272.2459 0003413 273.9879  38.1195 15.52548910  4055
STARLINK-34014          
1 63942U 25098S   25152.50002315 -.00052798  00000+0 -86074-3 0  9999
2 63942  69.9997 270.6449 0003360 270.2328  63.4784 15.52533090  4158
STARLINK-33985          
1 63943U 25098T   25151.91668981 -.00051996  00000+0 -84756-3 0  9995
2 63943  69.9994 272.2405 0003499 274.3474  42.3755 15.52531596  4115
STARLINK-33996          
1 63944U 25098U   25152.50002315 -.01725189  00000+0 -32070-1 0  9998
2 63944  69.9996 270.6393 0003569 269.9545  68.1556 15.51923936  4154
STARLINK-34036          
1 63945U 25098V   25152.50002315 -.01689689  00000+0 -38731-1 0  9993
2 63945  69.9997 270.6618 0003619 270.9379  47.4651 15.45919396  3916
STARLINK-34039          
1 63946U 25098W   25152.50002315 -.01692242  00000+0 -34946-1 0  9997
2 63946  69.9995 270.6420 0003350 265.6141  70.6516 15.48916020  4201
STARLINK-34034          
1 63947U 25098X   25152.50002315 -.01693663  00000+0 -33906-1 0  9991
2 63947  69.9996 270.6358 0003624 269.5158  71.8953 15.49792655  4157
STARLINK-33983          
1 63948U 25098Y   25152.50002315 -.00072430  00000+0 -11840-2 0  9998
2 63948  69.9996 270.6289 0003467 270.2440  77.2996 15.52549202  4204
STARLINK-33993          
1 63949U 25098Z   25152.50002315 -.00060016  00000+0 -97949-3 0  9991
2 63949  69.9996 270.6258 0003359 270.0335  79.8259 15.52538185  4200
STARLINK-33962          
1 63950U 25098AA  25152.16668981  .00095748  00000+0  15445-2 0  9990
2 63950  69.9995 271.5363 0003486 266.6406  23.0967 15.52444281  4209
STARLINK-33998          
1 63951U 25098AB  25152.16668981  .00095801  00000+0  15450-2 0  9997
2 63951  69.9996 271.5342 0003529 266.7591  25.2742 15.52450290  4158
STARLINK-34159          
1 63952U 25099A   25152.50002315 -.01637686  00000+0 -29565-1 0  9997
2 63952  42.9998 326.0421 0001120 257.1222  15.1445 15.51995610  4210
STARLINK-34137          
1 63953U 25099B   25152.50002315 -.01642090  00000+0 -29650-1 0  9998
2 63953  42.9996 326.0370 0001108 262.3688  11.8139 15.51998981  4219
STARLINK-33974          
1 63954U 25099C   25152.50002315 -.01629620  00000+0 -29406-1 0  9992
2 63954  42.9997 326.0326 0001237 258.0756  18.0264 15.51991847  4215
